{
  "type": "FeatureCollection",
  "features": [
    {
      "type": "Feature",
      "properties": {
        "norad_id": 39766,
        "name": "ALOS-2",
        "group": "resource",
        "lat": -63.567837461086,
        "lon": 94.77921368246633,
        "alt_km": 639.2060232720951,
        "timestamp": "2025-12-09T14:52:25.822936+00:00",
        "meta_object_name": "ALOS-2",
        "meta_object_id": "2014-029A",
        "meta_epoch": "2025-12-09T07:02:59.715744",
        "meta_mean_motion": 14.79459759,
        "meta_eccentricity": 0.00014451,
        "meta_inclination": 97.9229,
        "meta_ra_of_asc_node": 78.1889,
        "meta_arg_of_pericenter": 100.7251,
        "meta_mean_anomaly": 259.4123,
        "meta_ephemeris_type": 0,
        "meta_classification_type": "U",
        "meta_norad_cat_id": 39766,
        "meta_element_set_no": 999,
        "meta_rev_at_epoch": 62350,
        "meta_bstar": 0.00041861308,
        "meta_mean_motion_dot": 3.075e-05,
        "meta_mean_motion_ddot": 0,
        "tle_line1": "1 39766U 14029A   25343.29374671  .00003075  00000+0  41861-3 0  9990",
        "tle_line2": "2 39766  97.9229  78.1889 0001445 100.7251 259.4123 14.79459759623504"
      },
      "geometry": {
        "type": "Point",
        "coordinates": [
          94.77921368246633,
          -63.567837461086
        ]
      }
    },
    {
      "type": "Feature",
      "properties": {
        "norad_id": 40010,
        "name": "KAZEOSAT 2",
        "group": "resource",
        "lat": 37.93065381029559,
        "lon": 14.027670994563135,
        "alt_km": 609.1401272300172,
        "timestamp": "2025-12-09T14:52:25.822947+00:00",
        "meta_object_name": "KAZEOSAT 2",
        "meta_object_id": "2014-033A",
        "meta_epoch": "2025-12-09T07:46:11.473824",
        "meta_mean_motion": 14.85157941,
        "meta_eccentricity": 0.00074983,
        "meta_inclination": 97.5501,
        "meta_ra_of_asc_node": 187.8141,
        "meta_arg_of_pericenter": 219.3777,
        "meta_mean_anomaly": 140.6894,
        "meta_ephemeris_type": 0,
        "meta_classification_type": "U",
        "meta_norad_cat_id": 40010,
        "meta_element_set_no": 999,
        "meta_rev_at_epoch": 62077,
        "meta_bstar": 0.00013695333,
        "meta_mean_motion_dot": 1.123e-05,
        "meta_mean_motion_ddot": 0,
        "tle_line1": "1 40010U 14033A   25343.32374391  .00001123  00000+0  13695-3 0  9998",
        "tle_line2": "2 40010  97.5501 187.8141 0007498 219.3777 140.6894 14.85157941620777"
      },
      "geometry": {
        "type": "Point",
        "coordinates": [
          14.027670994563135,
          37.93065381029559
        ]
      }
    },
    {
      "type": "Feature",
      "properties": {
        "norad_id": 40011,
        "name": "HODOYOSHI-4",
        "group": "resource",
        "lat": -23.414221209630654,
        "lon": -10.630962445605281,
        "alt_km": 595.5764400670769,
        "timestamp": "2025-12-09T14:52:25.822957+00:00",
        "meta_object_name": "HODOYOSHI-4",
        "meta_object_id": "2014-033B",
        "meta_epoch": "2025-12-09T07:30:10.594368",
        "meta_mean_motion": 14.87458849,
        "meta_eccentricity": 0.00228572,
        "meta_inclination": 97.5412,
        "meta_ra_of_asc_node": 172.3658,
        "meta_arg_of_pericenter": 212.3451,
        "meta_mean_anomaly": 147.6366,
        "meta_ephemeris_type": 0,
        "meta_classification_type": "U",
        "meta_norad_cat_id": 40011,
        "meta_element_set_no": 999,
        "meta_rev_at_epoch": 62057,
        "meta_bstar": 9.6260628e-05,
        "meta_mean_motion_dot": 8.23e-06,
        "meta_mean_motion_ddot": 0,
        "tle_line1": "1 40011U 14033B   25343.31262262  .00000823  00000+0  96261-4 0  9998",
        "tle_line2": "2 40011  97.5412 172.3658 0022857 212.3451 147.6366 14.87458849620571"
      },
      "geometry": {
        "type": "Point",
        "coordinates": [
          -10.630962445605281,
          -23.414221209630654
        ]
      }
    },
    {
      "type": "Feature",
      "properties": {
        "norad_id": 40013,
        "name": "DEIMOS-2",
        "group": "resource",
        "lat": -59.98211246378283,
        "lon": -127.10374326822291,
        "alt_km": 596.5321112747724,
        "timestamp": "2025-12-09T14:52:25.822968+00:00",
        "meta_object_name": "DEIMOS-2",
        "meta_object_id": "2014-033D",
        "meta_epoch": "2025-12-09T07:06:12.074976",
        "meta_mean_motion": 14.92948939,
        "meta_eccentricity": 0.00010407,
        "meta_inclination": 97.6065,
        "meta_ra_of_asc_node": 219.2099,
        "meta_arg_of_pericenter": 90.0621,
        "meta_mean_anomaly": 270.0718,
        "meta_ephemeris_type": 0,
        "meta_classification_type": "U",
        "meta_norad_cat_id": 40013,
        "meta_element_set_no": 999,
        "meta_rev_at_epoch": 60938,
        "meta_bstar": 0.00015128697,
        "meta_mean_motion_dot": 1.516e-05,
        "meta_mean_motion_ddot": 0,
        "tle_line1": "1 40013U 14033D   25343.29597309  .00001516  00000+0  15129-3 0  9993",
        "tle_line2": "2 40013  97.6065 219.2099 0001040  90.0621 270.0718 14.92948939609387"
      },
      "geometry": {
        "type": "Point",
        "coordinates": [
          -127.10374326822291,
          -59.98211246378283
        ]
      }
    },
    {
      "type": "Feature",
      "properties": {
        "norad_id": 40015,
        "name": "HODOYOSHI-3",
        "group": "resource",
        "lat": 21.13806155834656,
        "lon": -27.44252701217937,
        "alt_km": 618.01860260383,
        "timestamp": "2025-12-09T14:52:25.822978+00:00",
        "meta_object_name": "HODOYOSHI-3",
        "meta_object_id": "2014-033F",
        "meta_epoch": "2025-12-09T06:04:18.773184",
        "meta_mean_motion": 14.84789084,
        "meta_eccentricity": 0.00318089,
        "meta_inclination": 97.6199,
        "meta_ra_of_asc_node": 149.2399,
        "meta_arg_of_pericenter": 259.9022,
        "meta_mean_anomaly": 99.8605,
        "meta_ephemeris_type": 0,
        "meta_classification_type": "U",
        "meta_norad_cat_id": 40015,
        "meta_element_set_no": 999,
        "meta_rev_at_epoch": 61943,
        "meta_bstar": 0.00034963832,
        "meta_mean_motion_dot": 2.941e-05,
        "meta_mean_motion_ddot": 0,
        "tle_line1": "1 40015U 14033F   25343.25299506  .00002941  00000+0  34964-3 0  9990",
        "tle_line2": "2 40015  97.6199 149.2399 0031808 259.9022  99.8605 14.84789084619432"
      },
      "geometry": {
        "type": "Point",
        "coordinates": [
          -27.44252701217937,
          21.13806155834656
        ]
      }
    },
    {
      "type": "Feature",
      "properties": {
        "norad_id": 40053,
        "name": "SPOT 7",
        "group": "resource",
        "lat": 28.102753113562578,
        "lon": -129.8763503861676,
        "alt_km": 689.0946753138915,
        "timestamp": "2025-12-09T14:52:25.822989+00:00",
        "meta_object_name": "SPOT 7",
        "meta_object_id": "2014-034A",
        "meta_epoch": "2025-12-09T07:36:24.338304",
        "meta_mean_motion": 14.60727062,
        "meta_eccentricity": 0.00015372,
        "meta_inclination": 98.0907,
        "meta_ra_of_asc_node": 45.4713,
        "meta_arg_of_pericenter": 90.2023,
        "meta_mean_anomaly": 269.9354,
        "meta_ephemeris_type": 0,
        "meta_classification_type": "U",
        "meta_norad_cat_id": 40053,
        "meta_element_set_no": 999,
        "meta_rev_at_epoch": 60941,
        "meta_bstar": 0.00018131534,
        "meta_mean_motion_dot": 8.38e-06,
        "meta_mean_motion_ddot": 0,
        "tle_line1": "1 40053U 14034A   25343.31694836  .00000838  00000+0  18132-3 0  9997",
        "tle_line2": "2 40053  98.0907  45.4713 0001537  90.2023 269.9354 14.60727062609416"
      },
      "geometry": {
        "type": "Point",
        "coordinates": [
          -129.8763503861676,
          28.102753113562578
        ]
      }
    },
    {
      "type": "Feature",
      "properties": {
        "norad_id": 40072,
        "name": "SKYSAT-B",
        "group": "resource",
        "lat": 31.372195049087978,
        "lon": 112.3055313982735,
        "alt_km": 600.6080499081681,
        "timestamp": "2025-12-09T14:52:25.822999+00:00",
        "meta_object_name": "SKYSAT-B",
        "meta_object_id": "2014-037D",
        "meta_epoch": "2025-12-09T02:54:27.041184",
        "meta_mean_motion": 14.87305028,
        "meta_eccentricity": 0.00058572,
        "meta_inclination": 98.3607,
        "meta_ra_of_asc_node": 286.636,
        "meta_arg_of_pericenter": 161.034,
        "meta_mean_anomaly": 199.1094,
        "meta_ephemeris_type": 0,
        "meta_classification_type": "U",
        "meta_norad_cat_id": 40072,
        "meta_element_set_no": 999,
        "meta_rev_at_epoch": 61770,
        "meta_bstar": 0.00030935087,
        "meta_mean_motion_dot": 2.731e-05,
        "meta_mean_motion_ddot": 0,
        "tle_line1": "1 40072U 14037D   25343.12114631  .00002731  00000+0  30935-3 0  9999",
        "tle_line2": "2 40072  98.3607 286.6360 0005857 161.0340 199.1094 14.87305028617701"
      },
      "geometry": {
        "type": "Point",
        "coordinates": [
          112.3055313982735,
          31.372195049087978
        ]
      }
    }
  ]
}